[Satellite]
VERSION=1.1
NAME=STARLINK-5171
NICKNAME=STARLINK-5171
TLE1=1 54077U 22136AC  22321.58334491 -.00005853  00000+0 -37251-4 0  9998
TLE2=2 54077  53.2152   9.4583 0003912  12.0005 320.0025 15.73207650  1307
STATUS=0
